{"type": "FeatureCollection", "features": [ {"type": "Feature", "properties": {"norad_id": 41836, "name": "HIMAWARI-9", "group": "weather", "lat": -0.016073519900318228, "lon": -54.27042154066787, "alt_km": 35781.818088460306, "timestamp": "2025-12-26T04:40:05.429701+00:00", "meta": {"OBJECT_NAME": "HIMAWARI-9", "OBJECT_ID": "2016-064A", "EPOCH": "2025-12-25T12:54:35.530272", "MEAN_MOTION": 1.00269178, "ECCENTRICITY": 0.0001265, "INCLINATION": 0.01, "RA_OF_ASC_NODE": 87.1528, "ARG_OF_PERICENTER": 236.8608, "MEAN_ANOMALY": 104.712, "EPHEMERIS_TYPE": 0, "CLASSIFICATION_TYPE": "U", "NORAD_CAT_ID": 41836, "ELEMENT_SET_NO": 999, "REV_AT_EPOCH": 3346, "BSTAR": 0, "MEAN_MOTION_DOT": -2.54e-06, "MEAN_MOTION_DDOT": 0}, "tle": {"line1": "1 41836U 16064A   25359.53791123 -.00000254  00000+0  00000+0 0  9994", "line2": "2 41836   0.0100  87.1528 0001265 236.8608 104.7120  1.00269178 33468"}}, "geometry": {"type": "Point", "coordinates": [-54.27042154066787, -0.016073519900318228]}}, {"type": "Feature", "properties": {"norad_id": 41866, "name": "GOES 16", "group": "weather", "lat": -0.035656770111867075, "lon": 60.31541097047436, "alt_km": 35797.9863539783, "timestamp": "2025-12-26T04:40:05.429714+00:00", "meta": {"OBJECT_NAME": "GOES 16", "OBJECT_ID": "2016-071A", "EPOCH": "2025-12-25T12:34:07.531392", "MEAN_MOTION": 1.00271753, "ECCENTRICITY": 0.0003194, "INCLINATION": 0.0771, "RA_OF_ASC_NODE": 101.2901, "ARG_OF_PERICENTER": 167.4094, "MEAN_ANOMALY": 269.4528, "EPHEMERIS_TYPE": 0, "CLASSIFICATION_TYPE": "U", "NORAD_CAT_ID": 41866, "ELEMENT_SET_NO": 999, "REV_AT_EPOCH": 3336, "BSTAR": 0, "MEAN_MOTION_DOT": -7e-07, "MEAN_MOTION_DDOT": 0}, "tle": {"line1": "1 41866U 16071A   25359.52369828 -.00000070  00000+0  00000+0 0  9993", "line2": "2 41866   0.0771 101.2901 0003194 167.4094 269.4528  1.00271753 33361"}}, "geometry": {"type": "Point", "coordinates": [60.31541097047436, -0.035656770111867075]}}, {"type": "Feature", "properties": {"norad_id": 41882, "name": "FENGYUN 4A", "group": "weather", "lat": -0.8532614897165824, "lon": -71.42865773236696, "alt_km": 35780.07835108802, "timestamp": "2025-12-26T04:40:05.429726+00:00", "meta": {"OBJECT_NAME": "FENGYUN 4A", "OBJECT_ID": "2016-077A", "EPOCH": "2025-12-25T23:06:50.594112", "MEAN_MOTION": 1.00262666, "ECCENTRICITY": 0.00045267, "INCLINATION": 1.8805, "RA_OF_ASC_NODE": 82.2609, "ARG_OF_PERICENTER": 143.2383, "MEAN_ANOMALY": 339.511, "EPHEMERIS_TYPE": 0, "CLASSIFICATION_TYPE": "U", "NORAD_CAT_ID": 41882, "ELEMENT_SET_NO": 999, "REV_AT_EPOCH": 3319, "BSTAR": 0, "MEAN_MOTION_DOT": -3.36e-06, "MEAN_MOTION_DDOT": 0}, "tle": {"line1": "1 41882U 16077A   25359.96308558 -.00000336  00000+0  00000+0 0  9993", "line2": "2 41882   1.8805  82.2609 0004526 143.2383 339.5110  1.00262666 33192"}}, "geometry": {"type": "Point", "coordinates": [-71.42865773236696, -0.8532614897165824]}}, {"type": "Feature", "properties": {"norad_id": 41884, "name": "CYGFM05", "group": "weather", "lat": -23.29660864060661, "lon": 177.25756121717737, "alt_km": 421.7887113173201, "timestamp": "2025-12-26T04:40:05.429737+00:00", "meta": {"OBJECT_NAME": "CYGFM05", "OBJECT_ID": "2016-078A", "EPOCH": "2025-12-25T06:02:20.349024", "MEAN_MOTION": 15.48102711, "ECCENTRICITY": 0.0010557, "INCLINATION": 34.9604, "RA_OF_ASC_NODE": 325.3743, "ARG_OF_PERICENTER": 290.9758, "MEAN_ANOMALY": 68.9834, "EPHEMERIS_TYPE": 0, "CLASSIFICATION_TYPE": "U", "NORAD_CAT_ID": 41884, "ELEMENT_SET_NO": 999, "REV_AT_EPOCH": 50170, "BSTAR": 0.00038157, "MEAN_MOTION_DOT": 0.00020682, "MEAN_MOTION_DDOT": 0}, "tle": {"line1": "1 41884U 16078A   25359.25162441  .00020682  00000+0  38157-3 0  9990", "line2": "2 41884  34.9604 325.3743 0010557 290.9758  68.9834 15.48102711501709"}}, "geometry": {"type": "Point", "coordinates": [177.25756121717737, -23.29660864060661]}}, {"type": "Feature", "properties": {"norad_id": 41885, "name": "CYGFM04", "group": "weather", "lat": -28.774109352131518, "lon": 165.47762758636065, "alt_km": 415.3292513396027, "timestamp": "2025-12-26T04:40:05.429749+00:00", "meta": {"OBJECT_NAME": "CYGFM04", "OBJECT_ID": "2016-078B", "EPOCH": "2025-12-25T21:28:13.816704", "MEAN_MOTION": 15.50926852, "ECCENTRICITY": 0.00090003, "INCLINATION": 34.9347, "RA_OF_ASC_NODE": 295.5633, "ARG_OF_PERICENTER": 320.8197, "MEAN_ANOMALY": 39.1873, "EPHEMERIS_TYPE": 0, "CLASSIFICATION_TYPE": "U", "NORAD_CAT_ID": 41885, "ELEMENT_SET_NO": 999, "REV_AT_EPOCH": 50198, "BSTAR": 0.00038113009, "MEAN_MOTION_DOT": 0.00022827, "MEAN_MOTION_DDOT": 0}, "tle": {"line1": "1 41885U 16078B   25359.89460436  .00022827  00000+0  38113-3 0  9991", "line2": "2 41885  34.9347 295.5633 0009000 320.8197  39.1873 15.50926852501987"}}, "geometry": {"type": "Point", "coordinates": [165.47762758636065, -28.774109352131518]}}, {"type": "Feature", "properties": {"norad_id": 41886, "name": "CYGFM02", "group": "weather", "lat": -22.38725246015744, "lon": -104.40856301203289, "alt_km": 403.951770267955, "timestamp": "2025-12-26T04:40:05.429759+00:00", "meta": {"OBJECT_NAME": "CYGFM02", "OBJECT_ID": "2016-078C", "EPOCH": "2025-12-25T22:40:22.678752", "MEAN_MOTION": 15.52349376, "ECCENTRICITY": 0.00106136, "INCLINATION": 34.9436, "RA_OF_ASC_NODE": 293.3868, "ARG_OF_PERICENTER": 322.9815, "MEAN_ANOMALY": 37.0175, "EPHEMERIS_TYPE": 0, "CLASSIFICATION_TYPE": "U", "NORAD_CAT_ID": 41886, "ELEMENT_SET_NO": 999, "REV_AT_EPOCH": 50212, "BSTAR": 0.00038418643, "MEAN_MOTION_DOT": 0.0002424, "MEAN_MOTION_DDOT": 0}, "tle": {"line1": "1 41886U 16078C   25359.94470693  .00024240  00000+0  38419-3 0  9994", "line2": "2 41886  34.9436 293.3868 0010613 322.9815  37.0175 15.52349376502126"}}, "geometry": {"type": "Point", "coordinates": [-104.40856301203289, -22.38725246015744]}}, {"type": "Feature", "properties": {"norad_id": 41887, "name": "CYGFM01", "group": "weather", "lat": -30.81106847062465, "lon": -97.19908257073561, "alt_km": 415.33816441115596, "timestamp": "2025-12-26T04:40:05.429770+00:00", "meta": {"OBJECT_NAME": "CYGFM01", "OBJECT_ID": "2016-078D", "EPOCH": "2025-12-25T22:45:08.972064", "MEAN_MOTION": 15.4872777, "ECCENTRICITY": 0.00102731, "INCLINATION": 34.9435, "RA_OF_ASC_NODE": 323.0767, "ARG_OF_PERICENTER": 288.737, "MEAN_ANOMALY": 71.2237, "EPHEMERIS_TYPE": 0, "CLASSIFICATION_TYPE": "U", "NORAD_CAT_ID": 41887, "ELEMENT_SET_NO": 999, "REV_AT_EPOCH": 50175, "BSTAR": 0.00037930981, "MEAN_MOTION_DOT": 0.00021016, "MEAN_MOTION_DDOT": 0}, "tle": {"line1": "1 41887U 16078D   25359.94802051  .00021016  00000+0  37931-3 0  9998", "line2": "2 41887  34.9435 323.0767 0010273 288.7370  71.2237 15.48727770501752"}}, "geometry": {"type": "Point", "coordinates": [-97.19908257073561, -30.81106847062465]}}, {"type": "Feature", "properties": {"norad_id": 41888, "name": "CYGFM08", "group": "weather", "lat": 23.65702628653504, "lon": -16.848729098205414, "alt_km": 412.0842692577644, "timestamp": "2025-12-26T04:40:05.429793+00:00", "meta": {"OBJECT_NAME": "CYGFM08", "OBJECT_ID": "2016-078E", "EPOCH": "2025-12-25T22:17:38.967936", "MEAN_MOTION": 15.49968306, "ECCENTRICITY": 0.00113205, "INCLINATION": 34.9459, "RA_OF_ASC_NODE": 306.0381, "ARG_OF_PERICENTER": 312.4936, "MEAN_ANOMALY": 47.4829, "EPHEMERIS_TYPE": 0, "CLASSIFICATION_TYPE": "U", "NORAD_CAT_ID": 41888, "ELEMENT_SET_NO": 999, "REV_AT_EPOCH": 50198, "BSTAR": 0.00037702572, "MEAN_MOTION_DOT": 0.00021839, "MEAN_MOTION_DDOT": 0}, "tle": {"line1": "1 41888U 16078E   25359.92892324  .00021839  00000+0  37703-3 0  9999", "line2": "2 41888  34.9459 306.0381 0011320 312.4936  47.4829 15.49968306501989"}}, "geometry": {"type": "Point", "coordinates": [-16.848729098205414, 23.65702628653504]}}, {"type": "Feature", "properties": {"norad_id": 41890, "name": "CYGFM07", "group": "weather", "lat": 29.99803965407479, "lon": -11.040083974191758, "alt_km": 409.5134345797251, "timestamp": "2025-12-26T04:40:05.429816+00:00", "meta": {"OBJECT_NAME": "CYGFM07", "OBJECT_ID": "2016-078G", "EPOCH": "2025-12-25T22:13:35.781312", "MEAN_MOTION": 15.50564799, "ECCENTRICITY": 0.00091793, "INCLINATION": 34.9475, "RA_OF_ASC_NODE": 294.9622, "ARG_OF_PERICENTER": 327.099, "MEAN_ANOMALY": 32.9161, "EPHEMERIS_TYPE": 0, "CLASSIFICATION_TYPE": "U", "NORAD_CAT_ID": 41890, "ELEMENT_SET_NO": 999, "REV_AT_EPOCH": 50200, "BSTAR": 0.00037294053, "MEAN_MOTION_DOT": 0.00022047, "MEAN_MOTION_DDOT": 0}, "tle": {"line1": "1 41890U 16078G   25359.92610858  .00022047  00000+0  37294-3 0  9999", "line2": "2 41890  34.9475 294.9622 0009179 327.0990  32.9161 15.50564799502006"}}, "geometry": {"type": "Point", "coordinates": [-11.040083974191758, 29.99803965407479]}}, {"type": "Feature", "properties": {"norad_id": 41891, "name": "CYGFM03", "group": "weather", "lat": -32.636191357186235, "lon": -178.3500273382982, "alt_km": 414.82826490437037, "timestamp": "2025-12-26T04:40:05.429835+00:00", "meta": {"OBJECT_NAME": "CYGFM03", "OBJECT_ID": "2016-078H", "EPOCH": "2025-12-25T21:24:42.405408", "MEAN_MOTION": 15.50456144, "ECCENTRICITY": 0.00091017, "INCLINATION": 34.9429, "RA_OF_ASC_NODE": 297.1124, "ARG_OF_PERICENTER": 313.6651, "MEAN_ANOMALY": 46.3316, "EPHEMERIS_TYPE": 0, "CLASSIFICATION_TYPE": "U", "NORAD_CAT_ID": 41891, "ELEMENT_SET_NO": 999, "REV_AT_EPOCH": 50197, "BSTAR": 0.00038165051, "MEAN_MOTION_DOT": 0.00022476, "MEAN_MOTION_DDOT": 0}, "tle": {"line1": "1 41891U 16078H   25359.89215747  .00022476  00000+0  38165-3 0  9998", "line2": "2 41891  34.9429 297.1124 0009101 313.6651  46.3316 15.50456144501978"}}, "geometry": {"type": "Point", "coordinates": [-178.3500273382982, -32.636191357186235]}}]}